{
  "type": "FeatureCollection",
  "features": [
    {
      "type": "Feature",
      "properties": {
        "norad_id": 35022,
        "name": "COSMOS 2251 DEB",
        "group": "cosmos-2251-debris",
        "lat": 52.19266119913946,
        "lon": -5.1563208307333,
        "alt_km": 701.710713316098,
        "timestamp": "2025-12-06T20:37:56.471394+00:00",
        "meta_object_name": "COSMOS 2251 DEB",
        "meta_object_id": "1993-036AGK",
        "meta_epoch": "2025-12-02T17:45:34.658208",
        "meta_mean_motion": 14.60763876,
        "meta_eccentricity": 0.00472905,
        "meta_inclination": 74.0262,
        "meta_ra_of_asc_node": 341.0512,
        "meta_arg_of_pericenter": 183.6288,
        "meta_mean_anomaly": 176.4543,
        "meta_ephemeris_type": 0,
        "meta_classification_type": "U",
        "meta_norad_cat_id": 35022,
        "meta_element_set_no": 999,
        "meta_rev_at_epoch": 58997,
        "meta_bstar": 0.00056913021,
        "meta_mean_motion_dot": 2.791e-05,
        "meta_mean_motion_ddot": 0,
        "tle_line1": "1 35022U 93036AGK 25336.73998447  .00002791  00000+0  56913-3 0  9998",
        "tle_line2": "2 35022  74.0262 341.0512 0047290 183.6288 176.4543 14.60763876589975"
      },
      "geometry": {
        "type": "Point",
        "coordinates": [
          -5.1563208307333,
          52.19266119913946
        ]
      }
    },
    {
      "type": "Feature",
      "properties": {
        "norad_id": 35023,
        "name": "COSMOS 2251 DEB",
        "group": "cosmos-2251-debris",
        "lat": -45.933008223542494,
        "lon": 61.64214661812699,
        "alt_km": 583.135761763996,
        "timestamp": "2025-12-06T20:37:56.471405+00:00",
        "meta_object_name": "COSMOS 2251 DEB",
        "meta_object_id": "1993-036AGL",
        "meta_epoch": "2025-12-06T10:47:49.492032",
        "meta_mean_motion": 14.94792784,
        "meta_eccentricity": 0.0034268,
        "meta_inclination": 74.0377,
        "meta_ra_of_asc_node": 225.268,
        "meta_arg_of_pericenter": 304.2691,
        "meta_mean_anomaly": 240.0516,
        "meta_ephemeris_type": 0,
        "meta_classification_type": "U",
        "meta_norad_cat_id": 35023,
        "meta_element_set_no": 999,
        "meta_rev_at_epoch": 88185,
        "meta_bstar": 0.0029037203,
        "meta_mean_motion_dot": 0.00032067,
        "meta_mean_motion_ddot": 0,
        "tle_line1": "1 35023U 93036AGL 25340.44987838  .00032067  00000+0  29037-2 0  9999",
        "tle_line2": "2 35023  74.0377 225.2680 0034268 304.2691 240.0516 14.94792784881859"
      },
      "geometry": {
        "type": "Point",
        "coordinates": [
          61.64214661812699,
          -45.933008223542494
        ]
      }
    },
    {
      "type": "Feature",
      "properties": {
        "norad_id": 35025,
        "name": "COSMOS 2251 DEB",
        "group": "cosmos-2251-debris",
        "lat": 52.03052626892283,
        "lon": 96.1107758537068,
        "alt_km": 623.3149834151627,
        "timestamp": "2025-12-06T20:37:56.471416+00:00",
        "meta_object_name": "COSMOS 2251 DEB",
        "meta_object_id": "1993-036AGN",
        "meta_epoch": "2025-12-05T13:24:32.861952",
        "meta_mean_motion": 14.72652613,
        "meta_eccentricity": 0.00847967,
        "meta_inclination": 73.9386,
        "meta_ra_of_asc_node": 76.9946,
        "meta_arg_of_pericenter": 351.3968,
        "meta_mean_anomaly": 8.5744,
        "meta_ephemeris_type": 0,
        "meta_classification_type": "U",
        "meta_norad_cat_id": 35025,
        "meta_element_set_no": 999,
        "meta_rev_at_epoch": 88537,
        "meta_bstar": 0.00071609127,
        "meta_mean_motion_dot": 4.797e-05,
        "meta_mean_motion_ddot": 0,
        "tle_line1": "1 35025U 93036AGN 25339.55871368  .00004797  00000+0  71609-3 0  9993",
        "tle_line2": "2 35025  73.9386  76.9946 0084796 351.3968   8.5744 14.72652613885379"
      },
      "geometry": {
        "type": "Point",
        "coordinates": [
          96.1107758537068,
          52.03052626892283
        ]
      }
    },
    {
      "type": "Feature",
      "properties": {
        "norad_id": 35026,
        "name": "COSMOS 2251 DEB",
        "group": "cosmos-2251-debris",
        "lat": -31.756492184587778,
        "lon": -40.295365055991944,
        "alt_km": 746.704345308468,
        "timestamp": "2025-12-06T20:37:56.471427+00:00",
        "meta_object_name": "COSMOS 2251 DEB",
        "meta_object_id": "1993-036AGP",
        "meta_epoch": "2025-12-06T07:51:48.078720",
        "meta_mean_motion": 14.53617344,
        "meta_eccentricity": 0.00822532,
        "meta_inclination": 74.0464,
        "meta_ra_of_asc_node": 330.9073,
        "meta_arg_of_pericenter": 86.1829,
        "meta_mean_anomaly": 338.5159,
        "meta_ephemeris_type": 0,
        "meta_classification_type": "U",
        "meta_norad_cat_id": 35026,
        "meta_element_set_no": 999,
        "meta_rev_at_epoch": 88050,
        "meta_bstar": 0.00012460817,
        "meta_mean_motion_dot": 5.15e-06,
        "meta_mean_motion_ddot": 0,
        "tle_line1": "1 35026U 93036AGP 25340.32763980  .00000515  00000+0  12461-3 0  9996",
        "tle_line2": "2 35026  74.0464 330.9073 0082253  86.1829 338.5159 14.53617344880505"
      },
      "geometry": {
        "type": "Point",
        "coordinates": [
          -40.295365055991944,
          -31.756492184587778
        ]
      }
    },
    {
      "type": "Feature",
      "properties": {
        "norad_id": 35028,
        "name": "COSMOS 2251 DEB",
        "group": "cosmos-2251-debris",
        "lat": 16.63340323450652,
        "lon": -72.956651419516,
        "alt_km": 659.7282270928581,
        "timestamp": "2025-12-06T20:37:56.471438+00:00",
        "meta_object_name": "COSMOS 2251 DEB",
        "meta_object_id": "1993-036AGR",
        "meta_epoch": "2025-12-06T14:45:20.784960",
        "meta_mean_motion": 14.56559763,
        "meta_eccentricity": 0.00822588,
        "meta_inclination": 74.0381,
        "meta_ra_of_asc_node": 282.6027,
        "meta_arg_of_pericenter": 57.9846,
        "meta_mean_anomaly": 116.6366,
        "meta_ephemeris_type": 0,
        "meta_classification_type": "U",
        "meta_norad_cat_id": 35028,
        "meta_element_set_no": 999,
        "meta_rev_at_epoch": 88196,
        "meta_bstar": 0.00020909724,
        "meta_mean_motion_dot": 9.44e-06,
        "meta_mean_motion_ddot": 0,
        "tle_line1": "1 35028U 93036AGR 25340.61482390  .00000944  00000+0  20910-3 0  9997",
        "tle_line2": "2 35028  74.0381 282.6027 0082258  57.9846 116.6366 14.56559763881966"
      },
      "geometry": {
        "type": "Point",
        "coordinates": [
          -72.956651419516,
          16.63340323450652
        ]
      }
    },
    {
      "type": "Feature",
      "properties": {
        "norad_id": 35031,
        "name": "COSMOS 2251 DEB",
        "group": "cosmos-2251-debris",
        "lat": -42.26998547778592,
        "lon": -104.98289257729019,
        "alt_km": 761.727674467923,
        "timestamp": "2025-12-06T20:37:56.471449+00:00",
        "meta_object_name": "COSMOS 2251 DEB",
        "meta_object_id": "1993-036AGU",
        "meta_epoch": "2025-12-06T02:28:30.271296",
        "meta_mean_motion": 14.38280865,
        "meta_eccentricity": 0.00185684,
        "meta_inclination": 74.0385,
        "meta_ra_of_asc_node": 271.4894,
        "meta_arg_of_pericenter": 6.3258,
        "meta_mean_anomaly": 353.8127,
        "meta_ephemeris_type": 0,
        "meta_classification_type": "U",
        "meta_norad_cat_id": 35031,
        "meta_element_set_no": 999,
        "meta_rev_at_epoch": 65188,
        "meta_bstar": 0.00033805858,
        "meta_mean_motion_dot": 1.004e-05,
        "meta_mean_motion_ddot": 0,
        "tle_line1": "1 35031U 93036AGU 25340.10312814  .00001004  00000+0  33806-3 0  9994",
        "tle_line2": "2 35031  74.0385 271.4894 0018568   6.3258 353.8127 14.38280865651880"
      },
      "geometry": {
        "type": "Point",
        "coordinates": [
          -104.98289257729019,
          -42.26998547778592
        ]
      }
    },
    {
      "type": "Feature",
      "properties": {
        "norad_id": 35032,
        "name": "COSMOS 2251 DEB",
        "group": "cosmos-2251-debris",
        "lat": 65.20405532314362,
        "lon": 159.76279586230984,
        "alt_km": 716.2131056168173,
        "timestamp": "2025-12-06T20:37:56.471459+00:00",
        "meta_object_name": "COSMOS 2251 DEB",
        "meta_object_id": "1993-036AGV",
        "meta_epoch": "2025-12-06T02:09:39.305664",
        "meta_mean_motion": 14.58639519,
        "meta_eccentricity": 0.00687921,
        "meta_inclination": 73.8519,
        "meta_ra_of_asc_node": 20.0853,
        "meta_arg_of_pericenter": 232.4618,
        "meta_mean_anomaly": 157.3877,
        "meta_ephemeris_type": 0,
        "meta_classification_type": "U",
        "meta_norad_cat_id": 35032,
        "meta_element_set_no": 999,
        "meta_rev_at_epoch": 87577,
        "meta_bstar": 0.0015774319,
        "meta_mean_motion_dot": 7.57e-05,
        "meta_mean_motion_ddot": 0,
        "tle_line1": "1 35032U 93036AGV 25340.09003826  .00007570  00000+0  15774-2 0  9990",
        "tle_line2": "2 35032  73.8519  20.0853 0068792 232.4618 157.3877 14.58639519875777"
      },
      "geometry": {
        "type": "Point",
        "coordinates": [
          159.76279586230984,
          65.20405532314362
        ]
      }
    }
  ]
}